[{"OBJECT_NAME":"FLOCK 4G-7","OBJECT_ID":"2025-009R","EPOCH":"2026-03-09T19:11:56.638176","MEAN_MOTION":15.27141471,"ECCENTRICITY":0.00013963,"INCLINATION":97.3984,"RA_OF_ASC_NODE":150.827,"ARG_OF_PERICENTER":336.9783,"MEAN_ANOMALY":23.1393,"EPHEMERIS_TYPE":0,"CLASSIFICATION_TYPE":"U","NORAD_CAT_ID":62624,"ELEMENT_SET_NO":999,"REV_AT_EPOCH":6372,"BSTAR":0.0004316781,"MEAN_MOTION_DOT":0.00011422,"MEAN_MOTION_DDOT":0},{"OBJECT_NAME":"STARLINK-36072","OBJECT_ID":"2025-281J","EPOCH":"2026-03-09T04:24:15.195744","MEAN_MOTION":15.27591238,"ECCENTRICITY":7.699e-5,"INCLINATION":42.9959,"RA_OF_ASC_NODE":346.7232,"ARG_OF_PERICENTER":265.3751,"MEAN_ANOMALY":94.7013,"EPHEMERIS_TYPE":0,"CLASSIFICATION_TYPE":"U","NORAD_CAT_ID":66856,"ELEMENT_SET_NO":999,"REV_AT_EPOCH":1610,"BSTAR":0.0006549002,"MEAN_MOTION_DOT":0.00017809,"MEAN_MOTION_DDOT":0}]
